0 SL-14 R/B
1 20238U 89074G   19147.76605323 +.00000014 +00000-0 +20323-4 0  9996
2 20238 082.5921 188.4422 0040876 060.2995 075.4857 12.55301037360719
0 FLTSATCOM 8 (USA 46)
1 20253U 89077A   19147.64521420 -.00000177 +00000-0 +00000-0 0  9995
2 20253 013.0612 008.6443 0006298 327.4689 205.2058 01.01092613234796
0 FLTSATCOM 8 (USA 46)
1 20253U 89077A   19148.01852782 -.00000185  00000-0  00000+0 0  9993
2 20253  13.0612   8.6411 0006278 327.5722 340.9685  1.01092684234766
0 INTERCOSMOS 24
1 20261U 89080A   19148.50004086  .00000119  00000-0  35307-4 0  9995
2 20261  82.6047 269.9963 1201879 258.4176  87.9880 12.56065485355134
0 INTERCOSMOS 24
1 20261U 89080A   19147.86279822 +.00000119 +00000-0 +35308-4 0  9996
2 20261 082.6047 270.4089 1201884 259.8899 086.4795 12.56065322355468
0 SL-14 R/B
1 20262U 89080C   19147.89373837 +.00000068 +00000-0 +10642-4 0  9998
2 20262 082.5919 321.5274 1237850 078.5364 295.1848 12.48917985350730
0 SL-14 R/B
1 20262U 89080C   19148.45448739  .00000067  00000-0  10399-4 0  9993
2 20262  82.5919 321.1682 1237836  77.2593 296.3697 12.48918019350388
0 GORIZONT 19
1 20263U 89081A   19147.82295507 +.00000044 +00000-0 +00000-0 0  9997
2 20263 014.6177 354.2890 0004237 296.7889 308.6035 01.00198618021492
0 SL-12 R/B(2)
1 20266U 89081D   19146.90531182 -.00000276 +00000-0 +00000-0 0  9998
2 20266 014.4732 353.8459 0029045 050.6015 118.8857 01.00605805093413
0 MAGION 2
1 20281U 89080B   19147.84703205 -.00000032 +00000-0 -15290-4 0  9997
2 20281 082.6048 251.6174 1190970 182.9524 176.4082 12.58890178357458
0 MAGION 2
1 20281U 89080B   19148.72138136 -.00000033  00000-0 -15806-4 0  9994
2 20281  82.6048 251.0491 1191019 180.9261 178.9637 12.58890223357134
0 COSMOS 839 DEB
1 20283U 76067BW  19147.90060343 +.00000518 +00000-0 +19604-2 0  9994
2 20283 065.7158 101.1208 0631343 065.7376 330.9067 12.45696359363219
0 COSMOS 1691 DEB
1 20284U 85094X   19147.91935788 +.00000267 +00000-0 +19627-2 0  9996
2 20284 083.1941 107.2314 0245291 044.6684 011.1439 12.30423824248537
0 COSMOS 1823 DEB
1 20285U 87020DP  19148.42286368 -.00000071  00000-0 -45758-3 0  9998
2 20285  73.6427 276.9908 0080812 247.6001 171.7759 12.30063537351330
0 COSMOS 1980 DEB
1 20301U 88102J   19147.91694791 +.00000256 +00000-0 +15930-3 0  9997
2 20301 070.9995 029.7506 0013977 104.0821 256.1855 14.14091421540962
0 NAVSTAR 16 (USA 47)
1 20302U 89085A   19147.63374101 -.00000051 +00000-0 +00000-0 0  9991
2 20302 054.7402 275.4124 0007656 053.2860 329.7860 01.89426288209716
0 NAVSTAR 16 (USA 47)
1 20302U 89085A   19148.17589466 -.00000052  00000-0  00000+0 0  9993
2 20302  54.7398 275.3930 0007652  53.3190 339.4779  1.89426291209718
0 DELTA 2 R/B(1)
1 20303U 89085B   19148.77592528  .00000725  00000-0  26127-4 0  9992
2 20303  35.6246 271.3801 0097587 348.7541  11.1009 15.26223082609082
0 DELTA 2 R/B(1)
1 20303U 89085B   19147.79466316 +.00000735 +00000-0 +26408-4 0  9991
2 20303 035.6247 277.5345 0097731 340.0536 019.6385 15.26221655609471
0 METEOR 3-3
1 20305U 89086A   19147.90510619 +.00000440 +00000-0 +13325-2 0  9998
2 20305 082.5485 089.6933 0006915 356.6774 063.6361 13.04613153410547
0 METEOR 3-3
1 20305U 89086A   19147.90510619  .00000440  00000-0  13325-2 0  9998
2 20305  82.5485  89.6933 0006915 356.6774  63.6361 13.04613153410794
0 SL-14 R/B
1 20306U 89086B   19147.90821811 -.00000138 +00000-0 -39588-3 0  9994
2 20306 082.5515 317.7889 0015651 220.1349 293.3330 13.16226813421341
0 SL-14 DEB
1 20308U 89080G   19148.10392718 -.00000198  00000-0 -68748-4 0  9999
2 20308  82.6475  44.0949 0957769 280.8629  68.6271 12.99904105382413
0 INTELSAT 602
1 20315U 89087A   19148.09493767 -.00000250  00000-0  00000+0 0  9998
2 20315  12.8215  26.2643 0000868   2.7592 214.6781  0.99008339105817
0 INTELSAT 602
1 20315U 89087A   19147.48216934 -.00000254 +00000-0 +00000-0 0  9994
2 20315 012.8210 026.2693 0000866 001.2548 357.7661 00.99008502105795
0 ARIANE 44L R/B
1 20316U 89087B   19147.53549095 +.00001937 +00000-0 +38990-3 0  9998
2 20316 007.1222 265.4450 6261778 225.2826 062.6349 03.65750806279220
0 ARIANE 44L R/B
1 20316U 89087B   19148.08139606  .00001937  00000-0  38645-3 0  9999
2 20316   7.1215 265.0352 6261757 226.0865  61.4309  3.65752794279218
0 HIMAWARI 4 AKM
1 20317U 89070C   19147.61293691 -.00000100 +00000-0 +00000-0 0  9998
2 20317 014.8181 356.8417 0246363 356.5126 014.3727 00.98761024021200
0 HIMAWARI 4 AKM
1 20317U 89070C   19148.61687934 -.00000069  00000-0  00000+0 0  9999
2 20317  14.8176 356.8324 0246311 356.5473  11.2934  0.98761017 97682
0 COBE
1 20322U 89089A   19147.94588700 -.00000245 +00000-0 -12540-3 0  9994
2 20322 098.9202 163.2799 0009819 085.4757 334.1732 14.04846811512740
0 COBE DEB
1 20324U 89089C   19147.72988144 +.00000132 +00000-0 +88449-4 0  9993
2 20324 098.7782 163.5944 0011424 342.5828 077.3392 14.16481531520271
0 COBE DEB
1 20324U 89089C   19148.01106911  .00000132  00000-0  88184-4 0  9996
2 20324  98.7782 163.8718 0011405 341.7229  71.2653 14.16481640520520
0 THORAD AGENA D DEB
1 20326U 70025QE  19148.21490834  .00001393  00000-0  39049-3 0  9995
2 20326  99.8931 139.1044 0067936 164.0695 262.2622 14.46744882548353
0 THORAD AGENA D DEB
1 20326U 70025QE  19147.93599858 +.00001393 +00000-0 +39043-3 0  9993
2 20326 099.8933 138.7793 0067865 164.8828 249.6172 14.46744104548310
0 COSMOS 970 DEB *
1 20327U 77121BY  19148.66276001  .00001095  00000-0  10809-3 0  9999
2 20327  65.8028  23.6889 0438545  43.7397 319.7576 14.44860865382460
0 COBE DEB
1 20328U 89089D   19148.13926299 -.00000190  00000-0 -92409-4 0  9993
2 20328  98.9397 160.9463 0003947  92.0509 309.2736 14.03899382511700
0 COBE DEB
1 20328U 89089D   19147.92922973 -.00000196 +00000-0 -96736-4 0  9997
2 20328 098.9397 160.7396 0003950 092.4636 327.9302 14.03899442511424
0 COSMOS 2050
1 20330U 89091A   19147.54508236 -.00000677 +00000-0 +00000-0 0  9991
2 20330 065.6420 296.6666 6200222 181.3363 175.7039 02.00602425216106
0 SL-6 R/B(2)
1 20333U 89091D   19147.32215750 -.00000072 +00000-0 +00000-0 0  9995
2 20333 069.3639 247.8434 5329404 122.4894 322.1195 02.04207311193071
0 SL-6 R/B(2)
1 20333U 89091D   19148.32934694 -.00000206  00000-0  00000+0 0  9999
2 20333  69.3641 247.7940 5328825 122.4632 342.5549  2.04208259193139
0 USA 40 R/B
1 20344U 89061D   19148.19097076  .00000081  00000-0  99570-4 0  9992
2 20344  57.0078  12.4025 3562697  60.1853 330.5829  7.87037281  9739
0 SL-3 DEB
1 20348U 72049C   19148.12520404 -.00000051  00000-0 -41283-4 0  9990
2 20348  81.2407  16.5989 0049289  25.1942 335.1613 14.01680862397146
0 SL-3 DEB
1 20348U 72049C   19147.76829389 -.00000046 +00000-0 -38251-4 0  9998
2 20348 081.2407 016.9417 0049303 026.1787 334.1855 14.01680867396894
0 DELTA 1 DEB
1 20349U 76077FR  19147.18972522 -.00000319 +00000-0 -50565-2 0  9991
2 20349 102.5702 265.7856 0625296 038.5910 072.5672 11.32979429263728
0 NAVSTAR 17 (USA 49)
1 20361U 89097A   19148.36016650  .00000007  00000-0  00000+0 0  9991
2 20361  54.5309 101.5447 0023396 282.4960 267.4694  1.89174490200605
0 DELTA 2 R/B(1)
1 20362U 89097B   19148.59231108  .00020358  00000-0  13427-3 0  9996
2 20362  35.6014 208.6006 0027885 139.7810  11.4289 15.74088558610985
0 DELTA 2 R/B(1)
1 20362U 89097B   19147.63689740 +.00017292 +00000-0 +11443-3 0  9998
2 20362 035.6014 215.0422 0027718 130.3201 357.7673 15.74049947611281
0 RADUGA 24
1 20367U 89098A   19147.57921365 -.00000288 +00000-0 +00000-0 0  9991
2 20367 014.9789 355.2014 0003302 327.1472 224.9166 01.00324139107126
0 SL-12 R/B(2)
1 20370U 89098D   19147.64687167 -.00000039 +00000-0 +00000-0 0  9996
2 20370 015.8023 357.9096 0015331 112.9724 079.9350 00.97851402092708
0 SL-12 R/B(2)
1 20370U 89098D   19148.14837941 -.00000039  00000-0  00000+0 0  9998
2 20370  15.8021 357.9048 0015343 112.9561 256.6209  0.97851446 92698
0 COSMOS 2054
1 20391U 89101A   19147.86368192 -.00000184 +00000-0 +00000-0 0  9993
2 20391 014.6881 355.2120 0004327 020.5243 158.9876 01.00285600108022
0 SL-12 R/B(2)
1 20394U 89101D   19147.84366441 -.00000209 +00000-0 +00000-0 0  9997
2 20394 015.4108 357.6968 0005318 157.2633 013.3177 00.98249132093852
0 SKYNET 4A R/B(PAM-D2)
1 20404U 90001D   19147.19952980 -.00000273 +00000-0 -16318-3 0  9991
2 20404 021.4383 140.1344 7045865 200.2516 104.3270 02.51799817246290
0 SKYNET 4A R/B(PAM-D2)
1 20404U 90001D   19148.38791373 -.00000131  00000-0 -16878-3 0  9994
2 20404  21.4395 139.6334 7045817 201.1506 101.5652  2.51799552246289
0 LEASAT 5 PKM (SSUS-A)
1 20411U 90002C   19148.77078361  .00000443  00000-0  11628-3 0  9993
2 20411  27.2295 260.3438 4624999 299.5010  22.3283  6.21467367568698
0 LEASAT 5 PKM (SSUS-A)
1 20411U 90002C   19147.64494950 +.00000480 +00000-0 +12246-3 0  9992
2 20411 027.2309 261.8789 4625166 296.9510 023.5235 06.21466403568647
0 COSMOS 2056
1 20432U 90004A   19147.63363124 -.00000005 +00000-0 +76123-5 0  9994
2 20432 074.0318 201.0513 0022168 164.1164 196.0687 14.33311592534359
0 COSMOS 2056
1 20432U 90004A   19148.47119055  .00000000  00000-0  95539-5 0  9995
2 20432  74.0317 199.5202 0022135 162.3776 197.8148 14.33311628534752
0 SL-8 R/B
1 20433U 90004B   19148.50550062 -.00000031  00000-0 -15712-5 0  9998
2 20433  74.0332 132.0889 0039675  88.2089  45.5030 14.36062518537164
0 SL-8 R/B
1 20433U 90004B   19147.93473806 -.00000039 +00000-0 -45039-5 0  9997
2 20433 074.0332 133.1369 0039672 089.4151 334.7403 14.36062470536803
0 SL-8 DEB
1 20434U 90004C   19147.37415326 +.00000185 +00000-0 +63405-4 0  9995
2 20434 074.0432 114.4460 0017098 300.0437 213.7354 14.42765361537815
